[{"OBJECT_NAME":"SITRO-AIS 20","OBJECT_ID":"2024-199Z","EPOCH":"2026-03-09T22:53:15.769536","MEAN_MOTION":14.97385198,"ECCENTRICITY":0.00069441,"INCLINATION":97.3309,"RA_OF_ASC_NODE":274.6556,"ARG_OF_PERICENTER":50.5148,"MEAN_ANOMALY":309.6689,"EPHEMERIS_TYPE":0,"CLASSIFICATION_TYPE":"U","NORAD_CAT_ID":61758,"ELEMENT_SET_NO":999,"REV_AT_EPOCH":12028,"BSTAR":0.00032349417,"MEAN_MOTION_DOT":3.708e-5,"MEAN_MOTION_DDOT":0},{"OBJECT_NAME":"STARLINK-36171","OBJECT_ID":"2025-293AA","EPOCH":"2026-03-09T12:04:34.768416","MEAN_MOTION":14.98344728,"ECCENTRICITY":0.00034225,"INCLINATION":70.0011,"RA_OF_ASC_NODE":94.7747,"ARG_OF_PERICENTER":272.5392,"MEAN_ANOMALY":87.5375,"EPHEMERIS_TYPE":0,"CLASSIFICATION_TYPE":"U","NORAD_CAT_ID":67027,"ELEMENT_SET_NO":999,"REV_AT_EPOCH":1486,"BSTAR":0.00045361424,"MEAN_MOTION_DOT":5.326e-5,"MEAN_MOTION_DDOT":0}]
